{
    "links": {
        "self": "http://www.neowsapp.com/rest/v1/neo/3472551?api_key=iIulBulltgU6a56xZRHN4H3l9WmuAYTsLGpBGhQ2"
    },
    "id": "3472551",
    "neo_reference_id": "3472551",
    "name": "(2009 UL28)",
    "designation": "2009 UL28",
    "nasa_jpl_url": "http://ssd.jpl.nasa.gov/sbdb.cgi?sstr=3472551",
    "absolute_magnitude_h": 24.8,
    "estimated_diameter": {
        "kilometers": {
            "estimated_diameter_min": 0.0291443905,
            "estimated_diameter_max": 0.0651688382
        },
        "meters": {
            "estimated_diameter_min": 29.1443904535,
            "estimated_diameter_max": 65.1688382168
        },
        "miles": {
            "estimated_diameter_min": 0.018109479,
            "estimated_diameter_max": 0.0404940262
        },
        "feet": {
            "estimated_diameter_min": 95.6180819754,
            "estimated_diameter_max": 213.8085311752
        }
    },
    "is_potentially_hazardous_asteroid": false,
    "close_approach_data": [
        {
            "close_approach_date": "2009-11-06",
            "close_approach_date_full": "2009-Nov-06 10:34",
            "epoch_date_close_approach": 1257503640000,
            "relative_velocity": {
                "kilometers_per_second": "9.9189715874",
                "kilometers_per_hour": "35708.2977144895",
                "miles_per_hour": "22187.7475437615"
            },
            "miss_distance": {
                "astronomical": "0.039757641",
                "lunar": "15.465722349",
                "kilometers": "5947658.40982467",
                "miles": "3695703.563813646"
            },
            "orbiting_body": "Earth"
        },
        {
            "close_approach_date": "2195-02-19",
            "close_approach_date_full": "2195-Feb-19 08:16",
            "epoch_date_close_approach": 7104615360000,
            "relative_velocity": {
                "kilometers_per_second": "21.3094275594",
                "kilometers_per_hour": "76713.9392137579",
                "miles_per_hour": "47667.0585075709"
            },
            "miss_distance": {
                "astronomical": "0.4052642056",
                "lunar": "157.6477759784",
                "kilometers": "60626661.945002072",
                "miles": "37671660.8744977136"
            },
            "orbiting_body": "Earth"
        }
    ],
    "orbital_data": {
        "orbit_id": "13",
        "orbit_determination_date": "2017-04-06 08:59:23",
        "first_observation_date": "2009-10-26",
        "last_observation_date": "2009-11-06",
        "data_arc_in_days": 11,
        "observations_used": 40,
        "orbit_uncertainty": "8",
        "minimum_orbit_intersection": ".0211722",
        "jupiter_tisserand_invariant": "3.615",
        "epoch_osculation": "2455133.5",
        "eccentricity": ".5344143423216918",
        "semi_major_axis": "2.032578280129509",
        "inclination": "2.876148359574196",
        "ascending_node_longitude": "206.4225746888587",
        "orbital_period": "1058.4475635542",
        "perihelion_distance": ".9463392953367419",
        "perihelion_argument": "235.0205345568736",
        "aphelion_distance": "3.118817264922276",
        "perihelion_time": "2455170.169419262899",
        "mean_anomaly": "347.5279688959597",
        "mean_motion": ".3401207696970294",
        "equinox": "J2000",
        "orbit_class": {
            "orbit_class_type": "APO",
            "orbit_class_description": "Near-Earth asteroid orbits which cross the Earth’s orbit similar to that of 1862 Apollo",
            "orbit_class_range": "a (semi-major axis) > 1.0 AU; q (perihelion) < 1.017 AU"
        }
    },
    "is_sentry_object": false
}